SL-3 R/B                
1 13403U 82079B   26008.14491107  .00004589  00000+0  18688-3 0  9999
2 13403  81.1460 264.5304 0025908  13.6938 346.4991 15.23962344368474
SL-14 R/B               
1 13553U 82092B   26008.00904159  .00000536  00000+0  57428-4 0  9995
2 13553  82.5668 198.1428 0021290 139.3962 335.3766 14.86586782319915
SL-3 R/B                
1 13819U 83010B   26008.15114218  .00012883  00000+0  27766-3 0  9995
2 13819  81.1034  76.3609 0016206 255.9619 103.9823 15.44310388348596
SL-3 R/B                
1 14208U 83075B   26008.09900065  .00010019  00000+0  27831-3 0  9997
2 14208  97.6118  10.4791 0024560  86.7495 273.6558 15.36784893320844
COSMOS 1536             
1 14699U 84013A   26007.96099497  .00006551  00000+0  27703-3 0  9991
2 14699  82.5460 168.1532 0015368 133.0666 227.1860 15.22924636263377
SL-14 R/B               
1 14820U 84027B   26007.88605887  .00000555  00000+0  60678-4 0  9996
2 14820  82.5432 302.0383 0018132 169.8239 190.3348 14.85908318238607
SL-8 R/B                
1 15483U 85006B   26008.19512271  .00000284  00000+0  10303-3 0  9997
2 15483  74.0459  12.4578 0019679 299.9800 134.4254 14.37741472145337
SL-12 R/B(2)            
1 15772U 85042D   26007.99409312  .00000098  00000+0  65670-4 0  9997
2 15772  71.1065 215.9559 0036769 222.8211 242.9380 14.21960422105767
SL-14 R/B               
1 15945U 85069B   26008.15861208  .00000492  00000+0  52875-4 0  9994
2 15945  82.5265  81.8662 0019670  36.8822 323.3743 14.86359104163845
SL-16 R/B               
1 16182U 85097B   26008.13565301  .00000285  00000+0  16698-3 0  9994
2 16182  71.0031 268.0343 0008258 332.9691 176.7715 14.16590205 78657
SL-14 R/B               
1 16496U 86006B   26007.94916942  .00000704  00000+0  71858-4 0  9998
2 16496  82.5285 316.8913 0078152 113.5628 247.3823 14.86712224140188
COSMOS 1743             
1 16719U 86034A   26007.81506203  .00028968  00000+0  44708-3 0  9993
2 16719  82.5364 137.4753 0005157 151.5109 208.6427 15.53967425170783
