CCSDS_OMM_VERS = 2.0
CREATION_DATE  = 
ORIGINATOR     = 

OBJECT_NAME    = SL-3 R/B
OBJECT_ID      = 1982-079B
CENTER_NAME    = EARTH
REF_FRAME      = TEME
TIME_SYSTEM    = UTC
MEAN_ELEMENT_THEORY = SGP/SGP4

EPOCH          = 2026-01-08T03:28:40.316448
MEAN_MOTION    = 15.23962344
ECCENTRICITY   = .0025908
INCLINATION    = 81.1460
RA_OF_ASC_NODE = 264.5304
ARG_OF_PERICENTER = 13.6938
MEAN_ANOMALY   = 346.4991

EPHEMERIS_TYPE = 0
CLASSIFICATION_TYPE = U
NORAD_CAT_ID   = 13403
ELEMENT_SET_NO = 999
REV_AT_EPOCH   = 36847
BSTAR          = .18688E-3
MEAN_MOTION_DOT = .4589E-4
MEAN_MOTION_DDOT = 0

CCSDS_OMM_VERS = 2.0
CREATION_DATE  = 
ORIGINATOR     = 

OBJECT_NAME    = SL-14 R/B
OBJECT_ID      = 1982-092B
CENTER_NAME    = EARTH
REF_FRAME      = TEME
TIME_SYSTEM    = UTC
MEAN_ELEMENT_THEORY = SGP/SGP4

EPOCH          = 2026-01-08T00:13:01.193376
MEAN_MOTION    = 14.86586782
ECCENTRICITY   = .002129
INCLINATION    = 82.5668
RA_OF_ASC_NODE = 198.1428
ARG_OF_PERICENTER = 139.3962
MEAN_ANOMALY   = 335.3766

EPHEMERIS_TYPE = 0
CLASSIFICATION_TYPE = U
NORAD_CAT_ID   = 13553
ELEMENT_SET_NO = 999
REV_AT_EPOCH   = 31991
BSTAR          = .57428E-4
MEAN_MOTION_DOT = .536E-5
MEAN_MOTION_DDOT = 0

CCSDS_OMM_VERS = 2.0
CREATION_DATE  = 
ORIGINATOR     = 

OBJECT_NAME    = SL-3 R/B
OBJECT_ID      = 1983-010B
CENTER_NAME    = EARTH
REF_FRAME      = TEME
TIME_SYSTEM    = UTC
MEAN_ELEMENT_THEORY = SGP/SGP4

EPOCH          = 2026-01-08T03:37:38.684352
MEAN_MOTION    = 15.44310388
ECCENTRICITY   = .0016206
INCLINATION    = 81.1034
RA_OF_ASC_NODE = 76.3609
ARG_OF_PERICENTER = 255.9619
MEAN_ANOMALY   = 103.9823

EPHEMERIS_TYPE = 0
CLASSIFICATION_TYPE = U
NORAD_CAT_ID   = 13819
ELEMENT_SET_NO = 999
REV_AT_EPOCH   = 34859
BSTAR          = .27766E-3
MEAN_MOTION_DOT = .12883E-3
MEAN_MOTION_DDOT = 0

CCSDS_OMM_VERS = 2.0
CREATION_DATE  = 
ORIGINATOR     = 

OBJECT_NAME    = SL-3 R/B
OBJECT_ID      = 1983-075B
CENTER_NAME    = EARTH
REF_FRAME      = TEME
TIME_SYSTEM    = UTC
MEAN_ELEMENT_THEORY = SGP/SGP4

EPOCH          = 2026-01-08T02:22:33.656160
MEAN_MOTION    = 15.36784893
ECCENTRICITY   = .002456
INCLINATION    = 97.6118
RA_OF_ASC_NODE = 10.4791
ARG_OF_PERICENTER = 86.7495
MEAN_ANOMALY   = 273.6558

EPHEMERIS_TYPE = 0
CLASSIFICATION_TYPE = U
NORAD_CAT_ID   = 14208
ELEMENT_SET_NO = 999
REV_AT_EPOCH   = 32084
BSTAR          = .27831E-3
MEAN_MOTION_DOT = .10019E-3
MEAN_MOTION_DDOT = 0

CCSDS_OMM_VERS = 2.0
CREATION_DATE  = 
ORIGINATOR     = 

OBJECT_NAME    = COSMOS 1536
OBJECT_ID      = 1984-013A
CENTER_NAME    = EARTH
REF_FRAME      = TEME
TIME_SYSTEM    = UTC
MEAN_ELEMENT_THEORY = SGP/SGP4

EPOCH          = 2026-01-07T23:03:49.965408
MEAN_MOTION    = 15.22924636
ECCENTRICITY   = .0015368
INCLINATION    = 82.5460
RA_OF_ASC_NODE = 168.1532
ARG_OF_PERICENTER = 133.0666
MEAN_ANOMALY   = 227.1860

EPHEMERIS_TYPE = 0
CLASSIFICATION_TYPE = U
NORAD_CAT_ID   = 14699
ELEMENT_SET_NO = 999
REV_AT_EPOCH   = 26337
BSTAR          = .27703E-3
MEAN_MOTION_DOT = .6551E-4
MEAN_MOTION_DDOT = 0

CCSDS_OMM_VERS = 2.0
CREATION_DATE  = 
ORIGINATOR     = 

OBJECT_NAME    = SL-14 R/B
OBJECT_ID      = 1984-027B
CENTER_NAME    = EARTH
REF_FRAME      = TEME
TIME_SYSTEM    = UTC
MEAN_ELEMENT_THEORY = SGP/SGP4

EPOCH          = 2026-01-07T21:15:55.486368
MEAN_MOTION    = 14.85908318
ECCENTRICITY   = .0018132
INCLINATION    = 82.5432
RA_OF_ASC_NODE = 302.0383
ARG_OF_PERICENTER = 169.8239
MEAN_ANOMALY   = 190.3348

EPHEMERIS_TYPE = 0
CLASSIFICATION_TYPE = U
NORAD_CAT_ID   = 14820
ELEMENT_SET_NO = 999
REV_AT_EPOCH   = 23860
BSTAR          = .60678E-4
MEAN_MOTION_DOT = .555E-5
MEAN_MOTION_DDOT = 0

CCSDS_OMM_VERS = 2.0
CREATION_DATE  = 
ORIGINATOR     = 

OBJECT_NAME    = SL-8 R/B
OBJECT_ID      = 1985-006B
CENTER_NAME    = EARTH
REF_FRAME      = TEME
TIME_SYSTEM    = UTC
MEAN_ELEMENT_THEORY = SGP/SGP4

EPOCH          = 2026-01-08T04:40:58.602144
MEAN_MOTION    = 14.37741472
ECCENTRICITY   = .0019679
INCLINATION    = 74.0459
RA_OF_ASC_NODE = 12.4578
ARG_OF_PERICENTER = 299.9800
MEAN_ANOMALY   = 134.4254

EPHEMERIS_TYPE = 0
CLASSIFICATION_TYPE = U
NORAD_CAT_ID   = 15483
ELEMENT_SET_NO = 999
REV_AT_EPOCH   = 14533
BSTAR          = .10303E-3
MEAN_MOTION_DOT = .284E-5
MEAN_MOTION_DDOT = 0

CCSDS_OMM_VERS = 2.0
CREATION_DATE  = 
ORIGINATOR     = 

OBJECT_NAME    = SL-12 R/B(2)
OBJECT_ID      = 1985-042D
CENTER_NAME    = EARTH
REF_FRAME      = TEME
TIME_SYSTEM    = UTC
MEAN_ELEMENT_THEORY = SGP/SGP4

EPOCH          = 2026-01-07T23:51:29.645568
MEAN_MOTION    = 14.21960422
ECCENTRICITY   = .0036769
INCLINATION    = 71.1065
RA_OF_ASC_NODE = 215.9559
ARG_OF_PERICENTER = 222.8211
MEAN_ANOMALY   = 242.9380

EPHEMERIS_TYPE = 0
CLASSIFICATION_TYPE = U
NORAD_CAT_ID   = 15772
ELEMENT_SET_NO = 999
REV_AT_EPOCH   = 10576
BSTAR          = .6567E-4
MEAN_MOTION_DOT = .98E-6
MEAN_MOTION_DDOT = 0

CCSDS_OMM_VERS = 2.0
CREATION_DATE  = 
ORIGINATOR     = 

OBJECT_NAME    = SL-14 R/B
OBJECT_ID      = 1985-069B
CENTER_NAME    = EARTH
REF_FRAME      = TEME
TIME_SYSTEM    = UTC
MEAN_ELEMENT_THEORY = SGP/SGP4

EPOCH          = 2026-01-08T03:48:24.083712
MEAN_MOTION    = 14.86359104
ECCENTRICITY   = .001967
INCLINATION    = 82.5265
RA_OF_ASC_NODE = 81.8662
ARG_OF_PERICENTER = 36.8822
MEAN_ANOMALY   = 323.3743

EPHEMERIS_TYPE = 0
CLASSIFICATION_TYPE = U
NORAD_CAT_ID   = 15945
ELEMENT_SET_NO = 999
REV_AT_EPOCH   = 16384
BSTAR          = .52875E-4
MEAN_MOTION_DOT = .492E-5
MEAN_MOTION_DDOT = 0

CCSDS_OMM_VERS = 2.0
CREATION_DATE  = 
ORIGINATOR     = 

OBJECT_NAME    = SL-16 R/B
OBJECT_ID      = 1985-097B
CENTER_NAME    = EARTH
REF_FRAME      = TEME
TIME_SYSTEM    = UTC
MEAN_ELEMENT_THEORY = SGP/SGP4

EPOCH          = 2026-01-08T03:15:20.420064
MEAN_MOTION    = 14.16590205
ECCENTRICITY   = .0008258
INCLINATION    = 71.0031
RA_OF_ASC_NODE = 268.0343
ARG_OF_PERICENTER = 332.9691
MEAN_ANOMALY   = 176.7715

EPHEMERIS_TYPE = 0
CLASSIFICATION_TYPE = U
NORAD_CAT_ID   = 16182
ELEMENT_SET_NO = 999
REV_AT_EPOCH   = 7865
BSTAR          = .16698E-3
MEAN_MOTION_DOT = .285E-5
MEAN_MOTION_DDOT = 0

CCSDS_OMM_VERS = 2.0
CREATION_DATE  = 
ORIGINATOR     = 

OBJECT_NAME    = SL-14 R/B
OBJECT_ID      = 1986-006B
CENTER_NAME    = EARTH
REF_FRAME      = TEME
TIME_SYSTEM    = UTC
MEAN_ELEMENT_THEORY = SGP/SGP4

EPOCH          = 2026-01-07T22:46:48.237888
MEAN_MOTION    = 14.86712224
ECCENTRICITY   = .0078152
INCLINATION    = 82.5285
RA_OF_ASC_NODE = 316.8913
ARG_OF_PERICENTER = 113.5628
MEAN_ANOMALY   = 247.3823

EPHEMERIS_TYPE = 0
CLASSIFICATION_TYPE = U
NORAD_CAT_ID   = 16496
ELEMENT_SET_NO = 999
REV_AT_EPOCH   = 14018
BSTAR          = .71858E-4
MEAN_MOTION_DOT = .704E-5
MEAN_MOTION_DDOT = 0

CCSDS_OMM_VERS = 2.0
CREATION_DATE  = 
ORIGINATOR     = 

OBJECT_NAME    = COSMOS 1743
OBJECT_ID      = 1986-034A
CENTER_NAME    = EARTH
REF_FRAME      = TEME
TIME_SYSTEM    = UTC
MEAN_ELEMENT_THEORY = SGP/SGP4

EPOCH          = 2026-01-07T19:33:41.359392
MEAN_MOTION    = 15.53967425
ECCENTRICITY   = .0005157
INCLINATION    = 82.5364
RA_OF_ASC_NODE = 137.4753
ARG_OF_PERICENTER = 151.5109
MEAN_ANOMALY   = 208.6427

EPHEMERIS_TYPE = 0
CLASSIFICATION_TYPE = U
NORAD_CAT_ID   = 16719
ELEMENT_SET_NO = 999
REV_AT_EPOCH   = 17078
BSTAR          = .44707738E-3
MEAN_MOTION_DOT = .28968E-3
MEAN_MOTION_DDOT = 0

